     2              NAVIGATION DATA                         RINEX VERSION / TYPE
CCRINEXN V1.6.0 UX  CDDIS               01-JUN-19 06:26     PGM / RUN BY / DATE 
IGS BROADCAST EPHEMERIS FILE                                COMMENT             
    0.6519D-08  0.2235D-07 -0.5960D-07 -0.1192D-06          ION ALPHA           
    0.8602D+05  0.9830D+05 -0.6554D+05 -0.5243D+06          ION BETA            
   -0.931322574615D-09-0.444089209850D-14   147456     2056 DELTA-UTC: A0,A1,T,W
    18                                                      LEAP SECONDS        
                                                            END OF HEADER       
12 19  6  1  8  0  0.0 0.237239059061D-03-0.352429196937D-11 0.000000000000D+00
    0.940000000000D+02 0.236250000000D+02 0.442196990708D-08-0.186896459731D-01
    0.122562050819D-05 0.763842591550D-02 0.162608921528D-05 0.515363318634D+04
    0.547200000000D+06-0.763684511185D-07 0.126858951732D+01 0.143423676491D-06
    0.982571079892D+00 0.359031250000D+03 0.109019729736D+01-0.843463705078D-08
   -0.432160858377D-10 0.100000000000D+01 0.205500000000D+04 0.000000000000D+00
    0.280000000000D+01 0.000000000000D+00-0.121071934700D-07 0.940000000000D+02
    0.540018000000D+06 0.400000000000D+01 0.000000000000D+00 0.000000000000D+00
13 19  6  1  8  0  0.0-0.611026771367D-04 0.170530256582D-11 0.000000000000D+00
    0.540000000000D+02-0.106250000000D+02 0.437446792843D-08 0.252577152130D+01
   -0.629574060440D-06 0.352678564377D-02 0.108387321234D-04 0.515366640663D+04
    0.547200000000D+06 0.298023223877D-07-0.769807988793D+00-0.819563865662D-07
    0.967859746009D+00 0.173781250000D+03 0.128915368800D+01-0.774496546604D-08
   -0.550022910662D-09 0.100000000000D+01 0.205500000000D+04 0.000000000000D+00
    0.200000000000D+01 0.000000000000D+00-0.111758708954D-07 0.540000000000D+02
    0.540018000000D+06 0.400000000000D+01 0.000000000000D+00 0.000000000000D+00
14 19  6  1  8  0  0.0-0.780262053013D-04 0.170530256582D-11 0.000000000000D+00
    0.930000000000D+02-0.324687500000D+02 0.457483341732D-08-0.300060818811D+01
   -0.165775418282D-05 0.106736090966D-01 0.996328890324D-05 0.515370760155D+04
    0.547200000000D+06 0.150874257088D-06-0.814238951109D+00-0.130385160446D-06
    0.960390008762D+00 0.184406250000D+03-0.193923201831D+01-0.780318217672D-08
   -0.510735559900D-09 0.100000000000D+01 0.205500000000D+04 0.000000000000D+00
    0.280000000000D+01 0.000000000000D+00-0.977888703346D-08 0.930000000000D+02
    0.540018000000D+06 0.400000000000D+01 0.000000000000D+00 0.000000000000D+00
15 19  6  1  8  0  0.0-0.309693627060D-03 0.227373675443D-11 0.000000000000D+00
    0.640000000000D+02-0.449375000000D+02 0.548415700858D-08 0.265453319797D+01
   -0.238977372646D-05 0.113344149431D-01 0.901520252228D-05 0.515369300079D+04
    0.547200000000D+06-0.149011611938D-07-0.987255197290D+00-0.212341547012D-06
    0.927737618716D+00 0.187875000000D+03 0.777504912829D+00-0.820855620503D-08
   -0.541808282776D-09 0.100000000000D+01 0.205500000000D+04 0.000000000000D+00
    0.200000000000D+01 0.000000000000D+00-0.111758708954D-07 0.640000000000D+02
    0.540018000000D+06 0.400000000000D+01 0.000000000000D+00 0.000000000000D+00
17 19  6  1  8  0  0.0 0.642817467451D-04 0.636646291241D-11 0.000000000000D+00
    0.140000000000D+02-0.121156250000D+03 0.364586615067D-08-0.283940401063D+01
   -0.613369047642D-05 0.128419416724D-01 0.845268368721D-05 0.515375314522D+04
    0.547200000000D+06 0.132247805595D-06 0.230258027761D+01-0.167638063431D-07
    0.984119022770D+00 0.226687500000D+03-0.171251600809D+01-0.750781273054D-08
   -0.275368613065D-09 0.100000000000D+01 0.205500000000D+04 0.000000000000D+00
    0.200000000000D+01 0.000000000000D+00-0.111758708954D-07 0.140000000000D+02
    0.540018000000D+06 0.400000000000D+01 0.000000000000D+00 0.000000000000D+00
18 19  6  1  8  0  0.0 0.582421198487D-04 0.329691829393D-11 0.000000000000D+00
    0.130000000000D+02-0.168125000000D+02 0.441268380599D-08 0.109754291625D+01
   -0.959262251854D-06 0.153898383724D-01 0.112242996693D-04 0.515370368576D+04
    0.547200000000D+06-0.292435288429D-06-0.303688607098D+01-0.149011611938D-06
    0.954597615348D+00 0.162562500000D+03 0.139202754001D+01-0.815569686037D-08
    0.440018328530D-09 0.100000000000D+01 0.205500000000D+04 0.000000000000D+00
    0.200000000000D+01 0.000000000000D+00-0.558793544769D-08 0.130000000000D+02
    0.546408000000D+06 0.400000000000D+01 0.000000000000D+00 0.000000000000D+00
20 19  6  1  8  0  0.0 0.525104347616D-03 0.227373675443D-12 0.000000000000D+00
    0.940000000000D+02 0.210000000000D+02 0.566595029529D-08 0.979004255937D+00
    0.107102096081D-05 0.442255032249D-02 0.493787229061D-05 0.515368218231D+04
    0.547200000000D+06 0.614672899246D-07-0.206162803225D+01-0.707805156708D-07
    0.930470855857D+00 0.267718750000D+03 0.236780157628D+01-0.861857328389D-08
    0.413231498465D-09 0.100000000000D+01 0.205500000000D+04 0.000000000000D+00
    0.200000000000D+01 0.000000000000D+00-0.884756445885D-08 0.940000000000D+02
    0.540018000000D+06 0.400000000000D+01 0.000000000000D+00 0.000000000000D+00
22 19  6  1  8  0  0.0-0.710164196789D-03-0.602540239925D-11 0.000000000000D+00
    0.680000000000D+02 0.198125000000D+02 0.576345435672D-08 0.270244021749D+01
    0.786036252975D-06 0.723834242672D-02 0.437721610069D-05 0.515378625870D+04
    0.547200000000D+06 0.189989805222D-06-0.201296094779D+01-0.298023223877D-07
    0.927154132377D+00 0.277343750000D+03-0.133867136862D+01-0.860714423639D-08
    0.264296723305D-09 0.100000000000D+01 0.205500000000D+04 0.000000000000D+00
    0.200000000000D+01 0.000000000000D+00-0.181607902050D-07 0.680000000000D+02
    0.540112000000D+06 0.400000000000D+01 0.000000000000D+00 0.000000000000D+00
23 19  6  1  8  0  0.0-0.183731317520D-03 0.170530256582D-11 0.000000000000D+00
    0.940000000000D+02-0.346875000000D+02 0.503056668615D-08 0.214176848987D+01
   -0.192411243916D-05 0.132770807249D-01 0.931881368160D-05 0.515358047676D+04
    0.547200000000D+06-0.165775418282D-06-0.912261200621D+00-0.244006514549D-06
    0.943101455024D+00 0.194843750000D+03-0.225474815949D+01-0.807819363205D-08
   -0.482162941165D-09 0.100000000000D+01 0.205500000000D+04 0.000000000000D+00
    0.200000000000D+01 0.000000000000D+00-0.204890966415D-07 0.940000000000D+02
    0.540000000000D+06 0.000000000000D+00 0.000000000000D+00 0.000000000000D+00
24 19  6  1  8  0  0.0-0.668689608574D-04-0.568434188608D-12 0.000000000000D+00
    0.480000000000D+02 0.105000000000D+03 0.488841790794D-08 0.162448342781D+01
    0.554509460926D-05 0.830117869191D-02 0.108834356070D-04 0.515372513962D+04
    0.547200000000D+06-0.139698386192D-06 0.102518646725D+00 0.163912773132D-06
    0.939081389789D+00 0.157906250000D+03 0.606004135670D+00-0.825927260328D-08
    0.139291516337D-10 0.100000000000D+01 0.205500000000D+04 0.000000000000D+00
    0.280000000000D+01 0.000000000000D+00 0.279396772385D-08 0.480000000000D+02
    0.540018000000D+06 0.400000000000D+01 0.000000000000D+00 0.000000000000D+00
25 19  6  1  8  0  0.0-0.761753413826D-03-0.352429196937D-11 0.000000000000D+00
    0.480000000000D+02 0.390625000000D+02 0.473198282036D-08-0.364604433410D+00
    0.205263495445D-05 0.843242066912D-02 0.150874257088D-05 0.515370465088D+04
    0.547200000000D+06-0.409781932831D-07 0.120417380082D+01 0.128522515297D-06
    0.970042002852D+00 0.352812500000D+03 0.902181911566D+00-0.861821612615D-08
   -0.225009372544D-10 0.100000000000D+01 0.205500000000D+04 0.000000000000D+00
    0.200000000000D+01 0.000000000000D+00 0.605359673500D-08 0.480000000000D+02
    0.540018000000D+06 0.400000000000D+01 0.000000000000D+00 0.000000000000D+00
26 19  6  1  8  0  0.0 0.215894076973D-03 0.954969436862D-11 0.000000000000D+00
    0.500000000000D+02 0.424375000000D+02 0.493734851753D-08-0.956023297774D+00
    0.221095979214D-05 0.371790153440D-02 0.135414302349D-05 0.515361236191D+04
    0.547200000000D+06 0.745058059692D-07 0.117549731344D+01-0.633299350738D-07
    0.951356979700D+00 0.350093750000D+03 0.172795447955D+00-0.856357099282D-08
    0.714315468392D-11 0.100000000000D+01 0.205500000000D+04 0.000000000000D+00
    0.200000000000D+01 0.000000000000D+00 0.745058059692D-08 0.500000000000D+02
    0.544482000000D+06 0.400000000000D+01 0.000000000000D+00 0.000000000000D+00
27 19  6  1  8  0  0.0-0.146349426359D-03-0.977706804406D-11 0.000000000000D+00
    0.110000000000D+02-0.113125000000D+03 0.385158900557D-08-0.277761728666D+01
   -0.584311783314D-05 0.713227537926D-02 0.718608498573D-05 0.515364867592D+04
    0.547200000000D+06-0.391155481338D-07 0.224637013006D+01-0.353902578354D-07
    0.978534518793D+00 0.251031250000D+03 0.496331228519D+00-0.779139597149D-08
   -0.242152943785D-09 0.100000000000D+01 0.205500000000D+04 0.000000000000D+00
    0.200000000000D+01 0.000000000000D+00 0.139698386192D-08 0.110000000000D+02
    0.540023000000D+06 0.400000000000D+01 0.000000000000D+00 0.000000000000D+00
28 19  6  1  8  0  0.0 0.767723657191D-03-0.113686837722D-12 0.000000000000D+00
    0.930000000000D+02 0.809375000000D+01 0.423874798944D-08-0.193562001359D+01
    0.664964318276D-06 0.190375775565D-01 0.124797224998D-05 0.515370082855D+04
    0.547200000000D+06 0.212341547012D-06 0.129147303929D+01 0.325962901115D-06
    0.981854232478D+00 0.367125000000D+03-0.146600860050D+01-0.808783689087D-08
   -0.138934358602D-09 0.100000000000D+01 0.205500000000D+04 0.000000000000D+00
    0.200000000000D+01 0.000000000000D+00-0.111758708954D-07 0.930000000000D+02
    0.543060000000D+06 0.000000000000D+00 0.000000000000D+00 0.000000000000D+00
